[{"OBJECT_NAME":"PRAETORIAN SDA_605","OBJECT_ID":"2025-203D","EPOCH":"2026-03-09T14:13:24.756960","MEAN_MOTION":13.83528896,"ECCENTRICITY":0.000955,"INCLINATION":81.2983,"RA_OF_ASC_NODE":102.8978,"ARG_OF_PERICENTER":98.6469,"MEAN_ANOMALY":261.5769,"EPHEMERIS_TYPE":0,"CLASSIFICATION_TYPE":"U","NORAD_CAT_ID":65568,"ELEMENT_SET_NO":999,"REV_AT_EPOCH":2492,"BSTAR":5.2426e-5,"MEAN_MOTION_DOT":7.0e-7,"MEAN_MOTION_DDOT":0},{"OBJECT_NAME":"THORAD AGENA D DEB","OBJECT_ID":"1970-025GF","EPOCH":"2026-03-09T15:31:14.171520","MEAN_MOTION":13.94777069,"ECCENTRICITY":0.0086771,"INCLINATION":99.8703,"RA_OF_ASC_NODE":113.3767,"ARG_OF_PERICENTER":23.2657,"MEAN_ANOMALY":337.2393,"EPHEMERIS_TYPE":0,"CLASSIFICATION_TYPE":"U","NORAD_CAT_ID":4945,"ELEMENT_SET_NO":999,"REV_AT_EPOCH":78131,"BSTAR":0.0016773934,"MEAN_MOTION_DOT":2.271e-5,"MEAN_MOTION_DDOT":0}]
